NORAD_CAT_ID,OBJECT_NAME,OBJECT_TYPE,EPOCH,MEAN_MOTION,ECCENTRICITY,INCLINATION,RA_OF_ASC_NODE,ARG_OF_PERICENTER,MEAN_ANOMALY,BSTAR,MEAN_MOTION_DOT,MEAN_MOTION_DDOT,TLE_LINE0,TLE_LINE1,TLE_LINE2,SEMIMAJOR_AXIS,PERIOD,APOGEE,PERIGEE,DECAYED
49460.0,STARLINK-3140,PAYLOAD,2022-04-25 14:00:01,15.08837318,0.0002891,53.2165,87.2995,35.0028,107.0952,-0.0014248,-0.00022893,0.0,0 STARLINK-3140,1 49460U 21104BE  22115.58334491 -.00022893  00000-0 -14248-2 0  9996,2 49460  53.2165  87.2995 0002891  35.0028 107.0952 15.08837318 26382,6917.889,95.438,541.754,537.754,0.0
49460.0,STARLINK-3140,PAYLOAD,2022-04-25 22:00:00,15.0883033,0.0002781,53.2167,85.8023,39.0817,114.5959,0.0014461,0.00022796,0.0,0 STARLINK-3140,1 49460U 21104BE  22115.91667824  .00022796  00000-0  14461-2 0  9999,2 49460  53.2167  85.8023 0002781  39.0817 114.5959 15.08830330  3616,6917.91,95.438,541.6990000000002,537.851,0.0
49460.0,STARLINK-3140,PAYLOAD,2022-04-26 06:00:00,15.08832484,0.0002984,53.2165,84.3078,36.592,128.6812,0.0010713,0.000168,0.0,0 STARLINK-3140,1 49460U 21104BE  22116.25001157  .00016800  00000-0  10713-2 0  9993,2 49460  53.2165  84.3078 0002984  36.5920 128.6812 15.08832484 26486,6917.903,95.438,541.8330000000002,537.7040000000002,0.0
49460.0,STARLINK-3140,PAYLOAD,2022-04-26 14:00:01,15.08869517,0.0002851,53.2161,82.8101,36.8813,140.0482,-0.0041314,-0.00065501,0.0,0 STARLINK-3140,1 49460U 21104BE  22116.58335648 -.00065501  00000-0 -41314-2 0  9999,2 49460  53.2161  82.8101 0002851  36.8813 140.0482 15.08869517  3594,6917.79,95.436,541.627,537.683,0.0
49460.0,STARLINK-3140,PAYLOAD,2022-04-26 22:00:00,15.08834874,0.0002743,53.2164,81.3132,39.7014,148.7661,0.0010729,0.00016826,0.0,0 STARLINK-3140,1 49460U 21104BE  22116.91667824  .00016826  00000-0  10729-2 0  9990,2 49460  53.2164  81.3132 0002743  39.7014 148.7661 15.08834874  3569,6917.896,95.438,541.659,537.863,0.0
49460.0,STARLINK-3140,PAYLOAD,2022-04-27 06:00:00,15.08835465,0.0002931,53.2163,79.8185,36.1949,163.8722,-0.0010911,-0.00017611,0.0,0 STARLINK-3140,1 49460U 21104BE  22117.25001157 -.00017611  00000-0 -10911-2 0  9997,2 49460  53.2163  79.8185 0002931  36.1949 163.8722 15.08835465 26631,6917.894,95.438,541.7869999999998,537.732,0.0
49460.0,STARLINK-3140,PAYLOAD,2022-04-27 14:00:01,15.08837093,0.0002794,53.2162,78.3207,36.2811,175.4305,-0.0011665,-0.00018805,0.0,0 STARLINK-3140,1 49460U 21104BE  22117.58335648 -.00018805  00000-0 -11665-2 0  9991,2 49460  53.2162  78.3207 0002794  36.2811 175.4305 15.08837093  3613,6917.889,95.438,541.687,537.821,0.0
49460.0,STARLINK-3140,PAYLOAD,2022-04-27 22:00:00,15.08841155,0.0002746,53.2165,76.8238,40.165,183.0663,0.00097638,0.00015286,0.0,0 STARLINK-3140,1 49460U 21104BE  22117.91667824  .00015286  00000-0  97638-3 0  9995,2 49460  53.2165  76.8238 0002746  40.1650 183.0663 15.08841155 26739,6917.877,95.437,541.6419999999998,537.842,0.0
49460.0,STARLINK-3140,PAYLOAD,2022-04-28 14:00:01,15.08859213,0.0002755,53.2167,73.8312,36.3753,210.0893,-0.00061696,-0.000101,0.0,0 STARLINK-3140,1 49460U 21104BE  22118.58334491 -.00010100  00000-0 -61696-3 0  9997,2 49460  53.2167  73.8312 0002755  36.3753 210.0893 15.08859213  3568,6917.821999999999,95.436,541.5930000000002,537.781,0.0
49460.0,STARLINK-3140,PAYLOAD,2022-04-28 22:00:01,15.08869712,0.0002648,53.217,72.3345,38.1778,219.9579,-0.0021206,-0.00033909,0.0,0 STARLINK-3140,1 49460U 21104BE  22118.91668981 -.00033909  00000-0 -21206-2 0  9992,2 49460  53.2170  72.3345 0002648  38.1778 219.9579 15.08869712 26884,6917.79,95.436,541.486,537.823,0.0
49460.0,STARLINK-3140,PAYLOAD,2022-04-29 14:00:01,15.0881839,0.0002593,53.2175,69.3421,32.2664,249.0034,-0.00013003,-2.356e-05,0.0,0 STARLINK-3140,1 49460U 21104BE  22119.58334491 -.00002356  00000-0 -13003-3 0  9991,2 49460  53.2175  69.3421 0002593  32.2664 249.0034 15.08818390  3609,6917.946,95.439,541.605,538.018,0.0
49460.0,STARLINK-3140,PAYLOAD,2022-04-29 22:00:00,15.0884152,0.0002512,53.2179,67.8455,34.2263,258.6088,-0.002544,-0.00040552,0.0,0 STARLINK-3140,1 49460U 21104BE  22119.91667824 -.00040552  00000-0 -25440-2 0  9994,2 49460  53.2179  67.8455 0002512  34.2263 258.6088 15.08841520  3595,6917.876,95.437,541.479,538.003,0.0
49460.0,STARLINK-3140,PAYLOAD,2022-04-30 06:00:00,15.08788359,0.0002743,53.218,66.351,30.7704,273.6465,0.0034781999999999,0.00055427,0.0,0 STARLINK-3140,1 49460U 21104BE  22120.25001157  .00055427  00000-0  34782-2 0  9998,2 49460  53.2180  66.3510 0002743  30.7704 273.6465 15.08788359 27086,6918.038000000001,95.441,541.8009999999998,538.006,0.0
49460.0,STARLINK-3140,PAYLOAD,2022-04-30 14:00:01,15.0883064,0.0002542,53.2182,64.8533,31.9024,284.0715,-0.00026357,-4.48e-05,0.0,0 STARLINK-3140,1 49460U 21104BE  22120.58334491 -.00004480  00000-0 -26357-3 0  9999,2 49460  53.2182  64.8533 0002542  31.9024 284.0715 15.08830640  3574,6917.909000000002,95.438,541.533,538.015,0.0
49460.0,STARLINK-3140,PAYLOAD,2022-04-30 22:00:00,15.08847303,0.0002463,53.2186,63.357,33.5065,294.0529,-0.0012421,-0.00020007,0.0,0 STARLINK-3140,1 49460U 21104BE  22120.91667824 -.00020007  00000-0 -12421-2 0  9994,2 49460  53.2186  63.3570 0002463  33.5065 294.0529 15.08847303 27189,6917.858,95.437,541.427,538.019,0.0
49460.0,STARLINK-3140,PAYLOAD,2022-05-01 14:00:01,15.08840637,0.0002461,53.2186,60.3645,31.3561,319.3719,-0.0022831,-0.00036443,0.0,0 STARLINK-3140,1 49460U 21104BE  22121.58334491 -.00036443  00000-0 -22831-2 0  9996,2 49460  53.2186  60.3645 0002461  31.3561 319.3719 15.08840637  3576,6917.878000000002,95.438,541.446,538.0409999999998,0.0
49460.0,STARLINK-3140,PAYLOAD,2022-05-01 22:00:01,15.08832371,0.0002451,53.2189,58.8685,33.8102,328.5551,-0.0023925,-0.00038158,0.0,0 STARLINK-3140,1 49460U 21104BE  22121.91668981 -.00038158  00000-0 -23925-2 0  9997,2 49460  53.2189  58.8685 0002451  33.8102 328.5551 15.08832371 27334,6917.904,95.438,541.464,538.073,0.0
49460.0,STARLINK-3140,PAYLOAD,2022-05-02 14:00:01,15.08806085,0.0002487,53.2186,55.8761,35.1316,350.2934,0.0012167,0.00019111,0.0,0 STARLINK-3140,1 49460U 21104BE  22122.58334491  .00019111  00000-0  12167-2 0  9999,2 49460  53.2186  55.8761 0002487  35.1316 350.2934 15.08806085 27446,6917.984,95.44,541.57,538.129,0.0
49460.0,STARLINK-3140,PAYLOAD,2022-05-02 22:00:01,15.08842321,0.0002497,53.2188,54.3803,36.8865,0.1597,-0.00084669,-0.0001374,0.0,0 STARLINK-3140,1 49460U 21104BE  22122.91668981 -.00013740  00000-0 -84669-3 0  9991,2 49460  53.2188  54.3803 0002497  36.8865   0.1597 15.08842321  3608,6917.873000000001,95.437,541.466,538.011,0.0
49460.0,STARLINK-3140,PAYLOAD,2022-05-03 14:00:01,15.0883356,0.000249,53.2183,51.3875,37.8972,22.2723,0.0018597,0.00029429,0.0,0 STARLINK-3140,1 49460U 21104BE  22123.58334491  .00029429  00000-0  18597-2 0  9996,2 49460  53.2183  51.3875 0002490  37.8972  22.2723 15.08833560  3579,6917.9,95.438,541.488,538.043,0.0
49460.0,STARLINK-3140,PAYLOAD,2022-05-03 22:00:00,15.08874608,0.0002528,53.2183,49.8918,39.4718,32.2921,-0.0010476,-0.00016939,0.0,0 STARLINK-3140,1 49460U 21104BE  22123.91667824 -.00016939  00000-0 -10476-2 0  9994,2 49460  53.2183  49.8918 0002528  39.4718  32.2921 15.08874608 27640,6917.775,95.435,541.388,537.891,0.0
49460.0,STARLINK-3140,PAYLOAD,2022-05-04 14:00:01,15.08844218,0.0002419,53.2178,46.8987,37.6391,57.3804,0.0014216,0.00022412,0.0,0 STARLINK-3140,1 49460U 21104BE  22124.58334491  .00022412  00000-0  14216-2 0  9996,2 49460  53.2178  46.8987 0002419  37.6391  57.3804 15.08844218  3616,6917.8669999999975,95.437,541.406,538.059,0.0
49460.0,STARLINK-3140,PAYLOAD,2022-05-04 22:00:01,15.08867527,0.0002455,53.2178,45.4029,38.1222,68.5688,-0.0023131,-0.00036942,0.0,0 STARLINK-3140,1 49460U 21104BE  22124.91668981 -.00036942  00000-0 -23131-2 0  9998,2 49460  53.2178  45.4029 0002455  38.1222  68.5688 15.08867527  3608,6917.795999999999,95.436,541.36,537.9630000000002,0.0
49460.0,STARLINK-3140,PAYLOAD,2022-05-05 06:00:00,15.08839087,0.0002606,53.2175,43.9077,33.3779,84.8589,0.00029229,4.367e-05,0.0,0 STARLINK-3140,1 49460U 21104BE  22125.25001157  .00004367  00000-0  29229-3 0  9991,2 49460  53.2175  43.9077 0002606  33.3779  84.8589 15.08839087 27846,6917.8830000000025,95.438,541.5509999999998,537.945,0.0
49460.0,STARLINK-3140,PAYLOAD,2022-05-05 14:00:01,15.08817982,0.0002368,53.2177,42.4096,34.7761,95.0666,0.0017863,0.00028239,0.0,0 STARLINK-3140,1 49460U 21104BE  22125.58334491  .00028239  00000-0  17863-2 0  9991,2 49460  53.2177  42.4096 0002368  34.7761  95.0666 15.08817982  3567,6917.948,95.439,541.451,538.175,0.0
49460.0,STARLINK-3140,PAYLOAD,2022-05-05 22:00:00,15.08843617,0.0002432,53.2178,40.914,35.4639,105.9591,-0.0022434,-0.0003582,0.0,0 STARLINK-3140,1 49460U 21104BE  22125.91667824 -.00035820  00000-0 -22434-2 0  9993,2 49460  53.2178  40.9140 0002432  35.4639 105.9591 15.08843617  3602,6917.869000000002,95.437,541.4169999999998,538.052,0.0
49460.0,STARLINK-3140,PAYLOAD,2022-05-06 08:00:01,15.08796653,0.0002581,53.217,39.029,33.2996,212.6038,0.0039208,0.00062593,0.0,0 STARLINK-3140,1 49460U 21104BE  22126.33334491  .00062593  00000-0  39208-2 0  9993,2 49460  53.2170  39.0290 0002581  33.2996 212.6038 15.08796653 28006,6918.013000000001,95.44,541.663,538.092,0.0
49460.0,STARLINK-3140,PAYLOAD,2022-05-06 14:00:01,15.08836128,0.0002493,53.2174,37.9023,35.1417,129.4383,8.2664e-05,1.027e-05,0.0,0 STARLINK-3140,1 49460U 21104BE  22126.58334491  .00001027  00000-0  82664-4 0  9991,2 49460  53.2174  37.9023 0002493  35.1417 129.4383 15.08836128  3601,6917.892,95.438,541.482,538.033,0.0
49460.0,STARLINK-3140,PAYLOAD,2022-05-07 06:00:02,15.08845683,0.0002508,53.2179,34.9293,27.4816,160.3845,-0.0010813,-0.0001746,0.0,0 STARLINK-3140,1 49460U 21104BE  22127.25002315 -.00017460  00000-0 -10813-2 0  9998,2 49460  53.2179  34.9293 0002508  27.4816 160.3845 15.08845683 28145,6917.863,95.437,541.4630000000002,537.993,0.0
